RAPIDEYE 2              
1 33312U 08040A   20110.50098435 -.00009987  00000-0 -88430-3 0  9993
2 33312  97.6978 176.4572 0011160 214.2295 145.7082 14.96069675629058
RAPIDEYE 5              
1 33313U 08040B   20110.46620059  .00000485  00000-0  50199-4 0  9996
2 33313  97.6968 175.3937 0016496  92.9387 267.3878 14.94370236628993
RAPIDEYE 1              
1 33314U 08040C   20110.45973826 -.00001243  00000-0 -10897-3 0  9994
2 33314  97.7177 176.5368 0027134 210.5084 149.2869 14.94509121629032
RAPIDEYE 3              
1 33315U 08040D   20111.41568974  .00272099  00000-0  22517-1 0  9993
2 33315  97.7018 176.3108 0003361 178.3853 181.6721 14.97413234629149
RAPIDEYE 4              
1 33316U 08040E   20108.12934111 -.00740851  00000-0 -71471-1 0  9999
2 33316  97.7133 173.0889 0010615 113.4099 247.0675 14.95382501628649
SKYSAT-1                
1 39418U 13066C   20111.20098495 -.00000512  00000-0 -37267-4 0  9992
2 39418  97.6248 191.9827 0022531  37.2080 323.0699 14.98945883350552
FLOCK 1C-10             
1 40023U 14033P   20111.26666111  .00000540  00000-0  61740-4 0  9995
2 40023  97.9362  39.7406 0013660 125.9192 234.3295 14.90053004317028
FLOCK 1C-7              
1 40026U 14033S   20111.50126525  .00000588  00000-0  65599-4 0  9993
2 40026  97.9448  42.4913 0012210 118.7855 241.4591 14.90814980317178
FLOCK 1C-1              
1 40027U 14033T   20111.73199043  .00000563  00000-0  64094-4 0  9996
2 40027  97.9396  40.8331 0013686 121.7730 238.4822 14.90106630317103
FLOCK 1C-2              
1 40029U 14033V   20111.07225684  .00000501  00000-0  57753-4 0  9992
2 40029  97.9381  39.9197 0014835 121.3830 238.8840 14.90068822317005
FLOCK 1C-4              
1 40031U 14033X   20111.01975191  .00000279  00000-0  35148-4 0  9990
2 40031  97.9387  39.4357 0015550 120.7006 239.5746 14.89646160316456
FLOCK 1C-11             
1 40033U 14033Z   20111.23531246  .00000369  00000-0  43106-4 0  9998
2 40033  97.9512  44.1286 0013457 108.9577 251.3100 14.91076475317228
FLOCK 1C-9              
1 40035U 14033AB  20111.35764748  .00000592  00000-0  66921-4 0  9996
2 40035  97.9436  41.1891 0012954 112.8095 247.4492 14.90196031317055
FLOCK 1C-6              
1 40036U 14033AC  20111.70838243  .00000507  00000-0  58096-4 0  9998
2 40036  97.9465  42.1418 0013194 112.3544 247.9073 14.90301658317126
FLOCK 1C-5              
1 40038U 14033AE  20111.53501655  .00000546  00000-0  62120-4 0  9991
2 40038  97.9433  41.4304 0015323 112.7890 247.4948 14.90266617317090
FLOCK 1C-8              
1 40040U 14033AG  20111.05598503  .00000732  00000-0  77484-4 0  9995
2 40040  97.9661  47.6661 0014209  94.6618 265.6224 14.92212289317343
FLOCK 1C-3              
1 40041U 14033AH  20111.52746442  .00000495  00000-0  57310-4 0  9997
2 40041  97.9404  40.5346 0014443 112.4231 247.8517 14.89897209317031
SKYSAT-2                
1 40072U 14037D   20111.07148316  .00000088  00000-0  18900-4 0  9991
2 40072  98.4578 286.1370 0005712 332.4629  27.6279 14.81270894312606
SKYSAT-C1               
1 41601U 16040C   20110.18391325  .00005155  00000-0  14909-3 0  9991
2 41601  97.2253 188.8898 0002485 127.3799 232.7217 15.36052374212600
FLOCK 2P-6              
1 41606U 16040H   20110.75298385  .00001253  00000-0  50998-4 0  9995
2 41606  97.3303 175.5321 0010671  30.7580 329.4282 15.26299762212808
FLOCK 2P-11             
1 41608U 16040K   20110.96921098  .00002565  00000-0  96111-4 0  9998
2 41608  97.3259 176.3630 0009907  26.2205 333.9534 15.28133843212838
FLOCK 2P-2              
1 41609U 16040L   20111.09006577  .00001899  00000-0  74851-4 0  9996
2 41609  97.3301 175.8354 0010277  29.8176 330.3646 15.26755029212774
FLOCK 2P-9              
1 41610U 16040M   20111.15335286  .00001506  00000-0  60942-4 0  9998
2 41610  97.3301 175.7195 0010978  29.0021 331.1826 15.26181356212659
FLOCK 2P-4              
1 41611U 16040N   20111.68753355  .00003183  00000-0  12072-3 0  9991
2 41611  97.3316 177.4219 0010298  34.2736 325.9166 15.27547772212947
FLOCK 2P-10             
1 41612U 16040P   20111.19243181  .00001616  00000-0  65052-4 0  9995
2 41612  97.3349 176.5902 0010963  38.5476 321.6543 15.26268343212833
FLOCK 2P-8              
1 41613U 16040Q   20110.91939746  .00001231  00000-0  50377-4 0  9991
2 41613  97.3340 176.1148 0011118  37.9919 322.2102 15.26156457212785
FLOCK 2P-12             
1 41614U 16040R   20111.46983306  .00001631  00000-0  65853-4 0  9993
2 41614  97.3350 176.9357 0011003  37.6358 322.5649 15.26153297212872
FLOCK 2P-7              
1 41615U 16040S   20111.10431431  .00002549  00000-0  96125-4 0  9997
2 41615  97.3286 176.8136 0010201  36.0488 324.1437 15.27923371212862
FLOCK 2P-5              
1 41616U 16040T   20111.69784306  .00003307  00000-0  12826-3 0  9992
2 41616  97.3332 177.2169 0010450  34.0937 326.0971 15.26769249212897
FLOCK 2P-1              
1 41617U 16040U   20111.13379232  .00002288  00000-0  87679-4 0  9996
2 41617  97.3314 176.9908 0010147  36.4196 323.7732 15.27496507212851
FLOCK 2P-3              
1 41618U 16040V   20111.48924280  .00001445  00000-0  58577-4 0  9993
2 41618  97.3360 176.9357 0010715  36.6450 323.5519 15.26204583212870
SKYSAT-C4               
1 41771U 16058B   20110.72177855  .00001188  00000-0  34303-4 0  9991
2 41771  97.2132 181.9192 0002177 109.4379 250.7101 15.37623020199641
SKYSAT-C5               
1 41772U 16058C   20111.17612896  .00000478  00000-0  22772-4 0  9999
2 41772  97.3618 181.9651 0002149  83.1935   2.6813 15.23776832199668
SKYSAT-C2               
1 41773U 16058D   20111.09062771  .00000991  00000-0  28848-4 0  9992
2 41773  97.2134 182.5857 0002344  87.0644 273.0869 15.37751045199729
SKYSAT-C3               
1 41774U 16058E   20111.16698516  .00001194  00000-0  34382-4 0  9999
2 41774  97.2129 182.6414 0003438 114.6746 245.4858 15.37692496199724
FLOCK 3P-20             
1 41950U 17008C   20111.11752515  .00001215  00000-0  49960-4 0  9998
2 41950  97.3677 179.3895 0010166 134.3826 225.8247 15.26038330176682
FLOCK 3P-8              
1 41951U 17008D   20110.64922256  .00001230  00000-0  50294-4 0  9996
2 41951  97.3678 178.9878 0009376 134.9149 225.2852 15.26195785176612
FLOCK 3P-51             
1 41952U 17008E   20111.66972913  .00001636  00000-0  66028-4 0  9997
2 41952  97.3680 180.1542 0008907 146.4782 213.7022 15.26179284176762
FLOCK 3P-37             
1 41953U 17008F   20111.51734873  .00003045  00000-0  11290-3 0  9999
2 41953  97.3704 181.9242 0007903 145.7261 214.4490 15.28358424176860
FLOCK 3P-19             
1 41955U 17008H   20111.07685702  .00002333  00000-0  91352-4 0  9995
2 41955  97.3668 179.3903 0009805 134.3010 225.9035 15.26771622176606
FLOCK 3P-24             
1 41956U 17008J   20110.96303061  .00000876  00000-0  34491-4 0  9999
2 41956  97.3673 180.8185 0009366 124.4527 235.7599 15.28222359176779
FLOCK 3P-18             
1 41957U 17008K   20111.72446487  .00003198  00000-0  11863-3 0  9992
2 41957  97.3650 181.0864 0009536 125.5535 234.6595 15.28285873176709
FLOCK 3P-22             
1 41958U 17008L   20111.07879015  .00002562  00000-0  96423-4 0  9998
2 41958  97.3694 180.2581 0009423 129.5292 230.6782 15.27999648176563
FLOCK 3P-21             
1 41959U 17008M   20111.47793094  .00002818  00000-0  10783-3 0  9993
2 41959  97.3692 180.4006 0009464 131.5558 228.6495 15.27361862176614
FLOCK 3P-28             
1 41960U 17008N   20111.12112724  .00002021  00000-0  78939-4 0  9996
2 41960  97.3679 179.7344 0009415 131.0877 229.1176 15.27001959176623
FLOCK 3P-26             
1 41961U 17008P   20111.16199835  .00002760  00000-0  10473-3 0  9997
2 41961  97.3673 180.2439 0009331 129.9902 230.2158 15.27655824176586
FLOCK 3P-17             
1 41962U 17008Q   20111.47609572  .00002913  00000-0  10958-3 0  9994
2 41962  97.3681 180.8836 0008918 129.3915 230.8116 15.27902570176607
FLOCK 3P-27             
1 41963U 17008R   20111.07779548  .00002054  00000-0  79065-4 0  9993
2 41963  97.3686 180.0852 0009535 130.2571 229.9504 15.27475368176563
FLOCK 3P-25             
1 41964U 17008S   20111.12400278  .00002321  00000-0  88367-4 0  9993
2 41964  97.3653 180.0514 0009389 129.9676 230.2389 15.27713718176550
FLOCK 3P-4              
1 41965U 17008T   20111.11400644  .00001192  00000-0  48855-4 0  9993
2 41965  97.3678 179.4302 0009516 132.8061 227.3979 15.26197782176602
FLOCK 3P-2              
1 41966U 17008U   20111.18244001  .00001164  00000-0  47746-4 0  9991
2 41966  97.3691 179.5567 0009330 130.6753 229.5298 15.26192992176538
FLOCK 3P-1              
1 41967U 17008V   20111.46475879  .00003570  00000-0  13298-3 0  9999
2 41967  97.3679 180.6454 0009195 129.3737 230.8319 15.28075431176639
FLOCK 3P-3              
1 41968U 17008W   20111.14211467  .00002242  00000-0  88231-4 0  9991
2 41968  97.3687 179.5444 0009456 131.5679 228.6372 15.26644791176616
FLOCK 3P-6              
1 41969U 17008X   20111.43746643  .00002915  00000-0  11495-3 0  9997
2 41969  97.3680 179.8038 0009392 132.0829 228.1210 15.26329512176565
FLOCK 3P-7              
1 41970U 17008Y   20111.12009911  .00002631  00000-0  97766-4 0  9996
2 41970  97.3680 180.7957 0009055 130.3712 229.8320 15.28402315176606
FLOCK 3P-5              
1 41971U 17008Z   20111.09073880  .00002119  00000-0  81488-4 0  9994
2 41971  97.3687 180.1356 0009144 132.8919 227.3090 15.27481156176499
FLOCK 3P-12             
1 41972U 17008AA  20111.62815043  .00001368  00000-0  55646-4 0  9991
2 41972  97.3693 180.0369 0009107 133.1307 227.0695 15.26205384176689
FLOCK 3P-9              
1 41973U 17008AB  20111.46872392  .00003340  00000-0  13015-3 0  9999
2 41973  97.3690 179.9644 0009218 131.4929 228.7102 15.26620186176664
FLOCK 3P-10             
1 41974U 17008AC  20111.64798592  .00002819  00000-0  10826-3 0  9996
2 41974  97.3696 180.6740 0008718 129.8334 230.3673 15.27248009176609
